SZ-21 MODULE            
1 66515U 25246C   25336.37392270  .00031271  00000+0  35399-3 0  9999
2 66515  41.4767  79.2433 0005727 198.8838 161.1789 15.61727370  2822
SHENZHOU-22             
1 66645U 25272A   25336.27179200  .00025017  00000+0  32073-3 0  9994
2 66645  41.4672  80.2264 0010258 312.0297  47.9667 15.58517706262403
CZ-2F R/B               
1 66646U 25272B   25330.47076975  .00449059  75676-5  29319-3 0  9998
2 66646  41.4431 114.9009 0121079 133.7676 227.3272 16.01945612   217
SOYUZ-MS 28             
1 66664U 25275A   25336.09225229  .00009217  00000+0  17381-3 0  9990
2 66664  51.6314 195.1903 0003639 193.8265 166.2625 15.49237019   798
